COSMOS 2425 (716)       
1 29670U 06062A   21165.44090307  .00000022  00000-0  00000-0 0  9994
2 29670  64.8427 255.5511 0023766 343.4061  16.3694  2.13117082112600
COSMOS 2433 (720)       
1 32275U 07052A   21165.88856172 -.00000044  00000-0  00000-0 0  9992
2 32275  66.0615  16.8707 0000574 258.2318 258.7920  2.13104100106135
COSMOS 2432 (719)       
1 32276U 07052B   21165.90429814 -.00000044  00000-0  00000-0 0  9995
2 32276  66.0760  16.9640 0009910 340.8100 137.5934  2.13103524106132
COSMOS 2434 (721)       
1 32393U 07065A   21165.37386243  .00000023  00000-0  00000-0 0  9994
2 32393  64.4603 254.0122 0002770 102.6516 267.9072  2.13103119104838
COSMOS 2436 (723)       
1 32395U 07065C   21165.90432010  .00000021  00000-0  00000-0 0  9997
2 32395  64.4703 254.0472 0014168 359.5487 194.0639  2.13103030104777
COSMOS 2456 (730)       
1 36111U 09070A   21165.25408200  .00000064  00000-0  00000-0 0  9994
2 36111  64.2769 133.6933 0006235 305.1045 144.1429  2.13099265 89492
COSMOS 2457 (733)       
1 36112U 09070B   21165.65374396  .00000067  00000-0  00000-0 0  9990
2 36112  64.2602 133.5632 0004265 195.7737 324.4435  2.13101537 89504
COSMOS 2459 (731)       
1 36400U 10007A   21165.16173740 -.00000045  00000-0  00000-0 0  9995
2 36400  65.9571  15.8185 0025912 352.1290 184.7372  2.13108438 87835
COSMOS 2461 (735)       
1 36401U 10007B   21165.39609331 -.00000045  00000-0  00000-0 0  9991
2 36401  65.9516  15.7759 0021142  12.4009 344.7810  2.13103823 87845
COSMOS 2460 (732)       
1 36402U 10007C   21165.10161716 -.00000045  00000-0  00000-0 0  9991
2 36402  65.9373  15.7411 0002406  73.9195   2.1137  2.13106786 87840
COSMOS 2464 (736)       
1 37139U 10041C   21165.71350267  .00000022  00000-0  00000-0 0  9999
2 37139  64.0607 253.2595 0027089  10.6446 121.4098  2.13100707 83913
COSMOS 2471 (701K)      
1 37372U 11009A   21165.94009573 -.00000043  00000-0  00000-0 0  9993
2 37372  65.9334  15.6412 0014343 227.3569 282.8620  2.13052346 80138
COSMOS 2476 (744)       
1 37867U 11064A   21165.65509521  .00000069  00000-0  00000-0 0  9996
2 37867  64.5726 134.8915 0022225 241.9027  57.3246  2.13101886 74842
COSMOS 2477 (745)       
1 37868U 11064B   21165.86095443  .00000071  00000-0  00000-0 0  9996
2 37868  64.5797 134.9444 0019788 243.7925  31.6778  2.13101704 74806
COSMOS 2475 (743)       
1 37869U 11064C   21165.92607591  .00000072  00000-0  00000-0 0  9998
2 37869  64.5874 134.9474 0024167 261.0468  22.0662  2.13102019 74815
COSMOS 2485 (747)       
1 39155U 13019A   21165.20389948  .00000066  00000-0  00000-0 0  9997
2 39155  64.7379 135.2547 0022617 237.9516 119.5977  2.13101940 63301
COSMOS 2492 (754)       
1 39620U 14012A   21165.71915593 -.00000044  00000-0  00000-0 0  9992
2 39620  65.8294  15.4560 0012876 333.7912  93.8585  2.13103152 56275
COSMOS 2500 (755)       
1 40001U 14032A   21164.83570822 -.00000046  00000-0  00000-0 0  9995
2 40001  65.7712  15.3711 0004904 183.9321 145.6341  2.13102656 54466
COSMOS 2501 (702K)      
1 40315U 14075A   21165.92855524  .00000020  00000-0  00000-0 0  9997
2 40315  63.7728 254.0604 0017660 208.9310  45.3618  2.13101481 50892
COSMOS 2514 (751)       
1 41330U 16008A   21165.69095061 -.00000045  00000-0  00000-0 0  9997
2 41330  65.5675  15.1254 0008103 204.9662 243.8256  2.13102814 41654
COSMOS 2516 (753)       
1 41554U 16032A   21165.70830617  .00000021  00000-0  00000-0 0  9991
2 41554  63.9980 254.2418 0014015 216.0218 141.2328  2.13107083 39258
COSMOS 2522 (752)       
1 42939U 17055A   21165.72317782  .00000021  00000-0  00000-0 0  9990
2 42939  64.2312 254.5282 0007695 241.9029 349.8772  2.13101915 29014
COSMOS 2527 (756)       
1 43508U 18053A   21165.79407266  .00000071  00000-0  00000-0 0  9991
2 43508  64.9029 135.1572 0009348 243.7846  74.4743  2.13102552 23302
COSMOS 2529 (757)       
1 43687U 18086A   21165.68545799  .00000021  00000-0  00000-0 0  9992
2 43687  64.4450 254.7459 0009541 266.3864 252.0151  2.13102089 20322
COSMOS 2534 (758)       
1 44299U 19030A   21165.77572226  .00000021  00000-0  00000-0 0  9997
2 44299  64.5157 254.5927 0012415 286.9331  75.5582  2.13102074 15971
COSMOS 2544 (759)       
1 44850U 19088A   21165.76449549  .00000071  00000-0  00000-0 0  9998
2 44850  64.8882 135.0185 0014110 266.2746  73.0549  2.13102288 11740
COSMOS 2545 (760)       
1 45358U 20018A   21165.29847051 -.00000047  00000-0  00000-0 0  9999
2 45358  64.9035  16.0525 0006761 251.0876 300.7391  2.13102767  9687
